[{"OBJECT_NAME":"SL-8 R/B","OBJECT_ID":"1979-089B","EPOCH":"2026-04-20T03:39:53.826912","MEAN_MOTION":14.42376552,"ECCENTRICITY":0.00158668,"INCLINATION":74.0712,"RA_OF_ASC_NODE":14.2903,"ARG_OF_PERICENTER":179.7651,"MEAN_ANOMALY":180.3516,"EPHEMERIS_TYPE":0,"CLASSIFICATION_TYPE":"U","NORAD_CAT_ID":11574,"ELEMENT_SET_NO":999,"REV_AT_EPOCH":44208,"BSTAR":5.739199e-5,"MEAN_MOTION_DOT":1.64e-6,"MEAN_MOTION_DDOT":0},{"OBJECT_NAME":"SL-14 R/B","OBJECT_ID":"1980-005B","EPOCH":"2026-04-20T03:16:14.819232","MEAN_MOTION":14.90976152,"ECCENTRICITY":0.00163828,"INCLINATION":82.5117,"RA_OF_ASC_NODE":267.9064,"ARG_OF_PERICENTER":30.2466,"MEAN_ANOMALY":329.9695,"EPHEMERIS_TYPE":0,"CLASSIFICATION_TYPE":"U","NORAD_CAT_ID":11672,"ELEMENT_SET_NO":999,"REV_AT_EPOCH":48266,"BSTAR":3.6492783e-5,"MEAN_MOTION_DOT":3.87e-6,"MEAN_MOTION_DDOT":0},{"OBJECT_NAME":"SL-8 R/B","OBJECT_ID":"1981-003B","EPOCH":"2026-04-20T02:26:05.813088","MEAN_MOTION":15.12681458,"ECCENTRICITY":0.02570495,"INCLINATION":82.9372,"RA_OF_ASC_NODE":251.6743,"ARG_OF_PERICENTER":34.752,"MEAN_ANOMALY":327.02,"EPHEMERIS_TYPE":0,"CLASSIFICATION_TYPE":"U","NORAD_CAT_ID":12139,"ELEMENT_SET_NO":999,"REV_AT_EPOCH":32093,"BSTAR":0.00035388478,"MEAN_MOTION_DOT":0.00014254,"MEAN_MOTION_DDOT":0},{"OBJECT_NAME":"SL-3 R/B","OBJECT_ID":"1981-046B","EPOCH":"2026-04-20T07:13:31.372320","MEAN_MOTION":15.42987114,"ECCENTRICITY":0.0018257,"INCLINATION":81.2313,"RA_OF_ASC_NODE":239.7304,"ARG_OF_PERICENTER":232.6234,"MEAN_ANOMALY":127.3348,"EPHEMERIS_TYPE":0,"CLASSIFICATION_TYPE":"U","NORAD_CAT_ID":12465,"ELEMENT_SET_NO":999,"REV_AT_EPOCH":44484,"BSTAR":0.00019736149,"MEAN_MOTION_DOT":8.776e-5,"MEAN_MOTION_DDOT":0},{"OBJECT_NAME":"SL-3 R/B","OBJECT_ID":"1981-103B","EPOCH":"2026-04-20T06:24:11.055168","MEAN_MOTION":15.21813712,"ECCENTRICITY":0.00140374,"INCLINATION":81.1586,"RA_OF_ASC_NODE":164.652,"ARG_OF_PERICENTER":143.1456,"MEAN_ANOMALY":217.0744,"EPHEMERIS_TYPE":0,"CLASSIFICATION_TYPE":"U","NORAD_CAT_ID":12904,"ELEMENT_SET_NO":999,"REV_AT_EPOCH":97955,"BSTAR":0.00011258597,"MEAN_MOTION_DOT":2.588e-5,"MEAN_MOTION_DDOT":0},{"OBJECT_NAME":"SL-3 R/B","OBJECT_ID":"1982-013B","EPOCH":"2026-04-20T06:12:57.913632","MEAN_MOTION":15.22354383,"ECCENTRICITY":0.00230402,"INCLINATION":81.1712,"RA_OF_ASC_NODE":112.0281,"ARG_OF_PERICENTER":42.6818,"MEAN_ANOMALY":317.6198,"EPHEMERIS_TYPE":0,"CLASSIFICATION_TYPE":"U","NORAD_CAT_ID":13068,"ELEMENT_SET_NO":999,"REV_AT_EPOCH":41067,"BSTAR":0.00012316511,"MEAN_MOTION_DOT":2.888e-5,"MEAN_MOTION_DDOT":0},{"OBJECT_NAME":"SL-3 R/B","OBJECT_ID":"1982-039B","EPOCH":"2026-04-20T06:23:16.359648","MEAN_MOTION":15.10285462,"ECCENTRICITY":0.00280736,"INCLINATION":81.1504,"RA_OF_ASC_NODE":168.0066,"ARG_OF_PERICENTER":183.2686,"MEAN_ANOMALY":176.8361,"EPHEMERIS_TYPE":0,"CLASSIFICATION_TYPE":"U","NORAD_CAT_ID":13154,"ELEMENT_SET_NO":999,"REV_AT_EPOCH":38791,"BSTAR":6.0613821e-5,"MEAN_MOTION_DOT":1.025e-5,"MEAN_MOTION_DDOT":0},{"OBJECT_NAME":"SL-3 R/B","OBJECT_ID":"1982-079B","EPOCH":"2026-04-20T06:20:47.501952","MEAN_MOTION":15.25270271,"ECCENTRICITY":0.00246477,"INCLINATION":81.1445,"RA_OF_ASC_NODE":143.9729,"ARG_OF_PERICENTER":28.5863,"MEAN_ANOMALY":331.6716,"EPHEMERIS_TYPE":0,"CLASSIFICATION_TYPE":"U","NORAD_CAT_ID":13403,"ELEMENT_SET_NO":999,"REV_AT_EPOCH":38403,"BSTAR":0.00011404405,"MEAN_MOTION_DOT":2.919e-5,"MEAN_MOTION_DDOT":0},{"OBJECT_NAME":"SL-14 R/B","OBJECT_ID":"1982-092B","EPOCH":"2026-04-20T05:29:36.609216","MEAN_MOTION":14.86701128,"ECCENTRICITY":0.00208723,"INCLINATION":82.5647,"RA_OF_ASC_NODE":102.5316,"ARG_OF_PERICENTER":159.1278,"MEAN_ANOMALY":211.6836,"EPHEMERIS_TYPE":0,"CLASSIFICATION_TYPE":"U","NORAD_CAT_ID":13553,"ELEMENT_SET_NO":999,"REV_AT_EPOCH":33510,"BSTAR":2.8529948e-5,"MEAN_MOTION_DOT":2.79e-6,"MEAN_MOTION_DDOT":0},{"OBJECT_NAME":"SL-3 R/B","OBJECT_ID":"1983-010B","EPOCH":"2026-04-20T06:50:55.622400","MEAN_MOTION":15.47603914,"ECCENTRICITY":0.00150249,"INCLINATION":81.1008,"RA_OF_ASC_NODE":311.1936,"ARG_OF_PERICENTER":261.6049,"MEAN_ANOMALY":98.3494,"EPHEMERIS_TYPE":0,"CLASSIFICATION_TYPE":"U","NORAD_CAT_ID":13819,"ELEMENT_SET_NO":999,"REV_AT_EPOCH":36437,"BSTAR":0.00017411935,"MEAN_MOTION_DOT":9.044e-5,"MEAN_MOTION_DDOT":0},{"OBJECT_NAME":"SL-3 R/B","OBJECT_ID":"1983-075B","EPOCH":"2026-04-20T05:40:56.718048","MEAN_MOTION":15.39353371,"ECCENTRICITY":0.00231957,"INCLINATION":97.613,"RA_OF_ASC_NODE":116.4198,"ARG_OF_PERICENTER":82.358,"MEAN_ANOMALY":278.0298,"EPHEMERIS_TYPE":0,"CLASSIFICATION_TYPE":"U","NORAD_CAT_ID":14208,"ELEMENT_SET_NO":999,"REV_AT_EPOCH":33654,"BSTAR":0.00019361584,"MEAN_MOTION_DOT":7.542e-5,"MEAN_MOTION_DDOT":0},{"OBJECT_NAME":"COSMOS 1536","OBJECT_ID":"1984-013A","EPOCH":"2026-04-20T06:41:32.106912","MEAN_MOTION":15.2437989,"ECCENTRICITY":0.00157933,"INCLINATION":82.5451,"RA_OF_ASC_NODE":66.4812,"ARG_OF_PERICENTER":130.6961,"MEAN_ANOMALY":229.5651,"EPHEMERIS_TYPE":0,"CLASSIFICATION_TYPE":"U","NORAD_CAT_ID":14699,"ELEMENT_SET_NO":999,"REV_AT_EPOCH":27895,"BSTAR":0.00021594291,"MEAN_MOTION_DOT":5.339e-5,"MEAN_MOTION_DDOT":0},{"OBJECT_NAME":"SL-14 R/B","OBJECT_ID":"1984-027B","EPOCH":"2026-04-20T05:45:15.327936","MEAN_MOTION":14.86018339,"ECCENTRICITY":0.0017686,"INCLINATION":82.5443,"RA_OF_ASC_NODE":206.0495,"ARG_OF_PERICENTER":191.0593,"MEAN_ANOMALY":169.0237,"EPHEMERIS_TYPE":0,"CLASSIFICATION_TYPE":"U","NORAD_CAT_ID":14820,"ELEMENT_SET_NO":999,"REV_AT_EPOCH":25380,"BSTAR":3.1855921e-5,"MEAN_MOTION_DOT":3.04e-6,"MEAN_MOTION_DDOT":0},{"OBJECT_NAME":"SL-8 R/B","OBJECT_ID":"1985-006B","EPOCH":"2026-04-20T04:44:33.573120","MEAN_MOTION":14.37809276,"ECCENTRICITY":0.00171967,"INCLINATION":74.0462,"RA_OF_ASC_NODE":184.7719,"ARG_OF_PERICENTER":88.8592,"MEAN_ANOMALY":337.8004,"EPHEMERIS_TYPE":0,"CLASSIFICATION_TYPE":"U","NORAD_CAT_ID":15483,"ELEMENT_SET_NO":999,"REV_AT_EPOCH":15999,"BSTAR":5.7232788e-5,"MEAN_MOTION_DOT":1.47e-6,"MEAN_MOTION_DDOT":0},{"OBJECT_NAME":"SL-12 R/B(2)","OBJECT_ID":"1985-042D","EPOCH":"2026-04-20T05:05:47.963616","MEAN_MOTION":14.21993874,"ECCENTRICITY":0.0033238,"INCLINATION":71.1102,"RA_OF_ASC_NODE":0.0042,"ARG_OF_PERICENTER":59.2928,"MEAN_ANOMALY":75.375,"EPHEMERIS_TYPE":0,"CLASSIFICATION_TYPE":"U","NORAD_CAT_ID":15772,"ELEMENT_SET_NO":999,"REV_AT_EPOCH":12029,"BSTAR":1.9547785e-5,"MEAN_MOTION_DOT":-4.0e-8,"MEAN_MOTION_DDOT":0},{"OBJECT_NAME":"SL-14 R/B","OBJECT_ID":"1985-069B","EPOCH":"2026-04-20T01:51:09.257472","MEAN_MOTION":14.86473466,"ECCENTRICITY":0.00201213,"INCLINATION":82.5284,"RA_OF_ASC_NODE":346.0257,"ARG_OF_PERICENTER":57.8951,"MEAN_ANOMALY":302.4215,"EPHEMERIS_TYPE":0,"CLASSIFICATION_TYPE":"U","NORAD_CAT_ID":15945,"ELEMENT_SET_NO":999,"REV_AT_EPOCH":17898,"BSTAR":3.164672e-5,"MEAN_MOTION_DOT":3.05e-6,"MEAN_MOTION_DDOT":0},{"OBJECT_NAME":"SL-16 R/B","OBJECT_ID":"1985-097B","EPOCH":"2026-04-20T07:33:23.349312","MEAN_MOTION":14.16607181,"ECCENTRICITY":0.00083744,"INCLINATION":71.0039,"RA_OF_ASC_NODE":52.9161,"ARG_OF_PERICENTER":208.9131,"MEAN_ANOMALY":313.7064,"EPHEMERIS_TYPE":0,"CLASSIFICATION_TYPE":"U","NORAD_CAT_ID":16182,"ELEMENT_SET_NO":999,"REV_AT_EPOCH":9312,"BSTAR":1.260162e-5,"MEAN_MOTION_DOT":-2.3e-7,"MEAN_MOTION_DDOT":0}]
