SL-8 R/B                
1 11574U 79089B   26110.15270633  .00000164  00000+0  57392-4 0  9998
2 11574  74.0712  14.2903 0015866 179.7651 180.3516 14.42376552442083
SL-14 R/B               
1 11672U 80005B   26110.13628263  .00000387  00000+0  36493-4 0  9997
2 11672  82.5117 267.9064 0016382  30.2466 329.9695 14.90976152482661
SL-8 R/B                
1 12139U 81003B   26110.10145617  .00014254  00000+0  35388-3 0  9998
2 12139  82.9372 251.6743 0257049  34.7520 327.0200 15.12681458320937
SL-3 R/B                
1 12465U 81046B   26110.30105755  .00008776  00000+0  19736-3 0  9999
2 12465  81.2313 239.7304 0018257 232.6234 127.3348 15.42987114444845
SL-3 R/B                
1 12904U 81103B   26110.26679462  .00002588  00000+0  11259-3 0  9994
2 12904  81.1586 164.6520 0014037 143.1456 217.0744 15.21813712979551
SL-3 R/B                
1 13068U 82013B   26110.25900363  .00002888  00000+0  12317-3 0  9992
2 13068  81.1712 112.0281 0023040  42.6818 317.6198 15.22354383410672
SL-3 R/B                
1 13154U 82039B   26110.26616157  .00001025  00000+0  60614-4 0  9998
2 13154  81.1504 168.0066 0028073 183.2686 176.8361 15.10285462387910
SL-3 R/B                
1 13403U 82079B   26110.26443868  .00002919  00000+0  11404-3 0  9991
2 13403  81.1445 143.9729 0024647  28.5863 331.6716 15.25270271384033
SL-14 R/B               
1 13553U 82092B   26110.22889594  .00000279  00000+0  28530-4 0  9994
2 13553  82.5647 102.5316 0020872 159.1278 211.6836 14.86701128335108
SL-3 R/B                
1 13819U 83010B   26110.28536600  .00009044  00000+0  17412-3 0  9998
2 13819  81.1008 311.1936 0015024 261.6049  98.3494 15.47603914364376
SL-3 R/B                
1 14208U 83075B   26110.23676757  .00007542  00000+0  19362-3 0  9992
2 14208  97.6130 116.4198 0023195  82.3580 278.0298 15.39353371336546
COSMOS 1536             
1 14699U 84013A   26110.27884383  .00005339  00000+0  21594-3 0  9991
2 14699  82.5451  66.4812 0015793 130.6961 229.5651 15.24379890278953
SL-14 R/B               
1 14820U 84027B   26110.23976074  .00000304  00000+0  31856-4 0  9997
2 14820  82.5443 206.0495 0017686 191.0593 169.0237 14.86018339253804
SL-8 R/B                
1 15483U 85006B   26110.19761080  .00000147  00000+0  57233-4 0  9997
2 15483  74.0462 184.7719 0017196  88.8592 337.8004 14.37809276159992
SL-12 R/B(2)            
1 15772U 85042D   26110.21236069 -.00000004  00000+0  19548-4 0  9995
2 15772  71.1102   0.0042 0033238  59.2928  75.3750 14.21993874120295
SL-14 R/B               
1 15945U 85069B   26110.07719048  .00000305  00000+0  31647-4 0  9990
2 15945  82.5284 346.0257 0020121  57.8951 302.4215 14.86473466178982
SL-16 R/B               
1 16182U 85097B   26110.31485358 -.00000023  00000+0  12602-4 0  9994
2 16182  71.0039  52.9161 0008374 208.9131 313.7064 14.16607181 93124
